{"type": "FeatureCollection", "features": [ {"type": "Feature", "properties": {"norad_id": 67041, "name": "STARLINK-35765", "group": "last-30-days", "lat": 42.87375989199411, "lon": -153.24809330696968, "alt_km": 318.7772636074278, "timestamp": "2025-12-22T14:45:56.100300+00:00", "meta": {"OBJECT_NAME": "STARLINK-35765", "OBJECT_ID": "2025-294M", "EPOCH": "2025-12-22T06:00:02.000160", "MEAN_MOTION": 15.83668273, "ECCENTRICITY": 0.0001299, "INCLINATION": 42.9999, "RA_OF_ASC_NODE": 123.9062, "ARG_OF_PERICENTER": 273.9809, "MEAN_ANOMALY": 248.7394, "EPHEMERIS_TYPE": 0, "CLASSIFICATION_TYPE": "U", "NORAD_CAT_ID": 67041, "ELEMENT_SET_NO": 999, "REV_AT_EPOCH": 164, "BSTAR": -0.0095387872, "MEAN_MOTION_DOT": -0.01898123, "MEAN_MOTION_DDOT": 0}, "tle": {"line1": "1 67041U 25294M   25356.25002315 -.01898123  00000+0 -95388-2 0  9997", "line2": "2 67041  42.9999 123.9062 0001299 273.9809 248.7394 15.83668273  1641"}}, "geometry": {"type": "Point", "coordinates": [-153.24809330696968, 42.87375989199411]}}, {"type": "Feature", "properties": {"norad_id": 67042, "name": "STARLINK-35773", "group": "last-30-days", "lat": 42.963420390374, "lon": -150.2271598079593, "alt_km": 318.8101491473135, "timestamp": "2025-12-22T14:45:56.100322+00:00", "meta": {"OBJECT_NAME": "STARLINK-35773", "OBJECT_ID": "2025-294N", "EPOCH": "2025-12-22T06:00:02.000160", "MEAN_MOTION": 15.83659474, "ECCENTRICITY": 0.00013079, "INCLINATION": 42.9999, "RA_OF_ASC_NODE": 123.9006, "ARG_OF_PERICENTER": 275.7492, "MEAN_ANOMALY": 249.2011, "EPHEMERIS_TYPE": 0, "CLASSIFICATION_TYPE": "U", "NORAD_CAT_ID": 67042, "ELEMENT_SET_NO": 999, "REV_AT_EPOCH": 183, "BSTAR": -0.0095760488, "MEAN_MOTION_DOT": -0.01903882, "MEAN_MOTION_DDOT": 0}, "tle": {"line1": "1 67042U 25294N   25356.25002315 -.01903882  00000+0 -95760-2 0  9991", "line2": "2 67042  42.9999 123.9006 0001307 275.7492 249.2011 15.83659474  1834"}}, "geometry": {"type": "Point", "coordinates": [-150.2271598079593, 42.963420390374]}}, {"type": "Feature", "properties": {"norad_id": 67043, "name": "STARLINK-35901", "group": "last-30-days", "lat": 42.973487562083484, "lon": -147.2317440805921, "alt_km": 318.84796982600255, "timestamp": "2025-12-22T14:45:56.100332+00:00", "meta": {"OBJECT_NAME": "STARLINK-35901", "OBJECT_ID": "2025-294P", "EPOCH": "2025-12-22T06:00:02.000160", "MEAN_MOTION": 15.8364616, "ECCENTRICITY": 0.00013036, "INCLINATION": 42.9999, "RA_OF_ASC_NODE": 123.8951, "ARG_OF_PERICENTER": 271.8274, "MEAN_ANOMALY": 255.3319, "EPHEMERIS_TYPE": 0, "CLASSIFICATION_TYPE": "U", "NORAD_CAT_ID": 67043, "ELEMENT_SET_NO": 999, "REV_AT_EPOCH": 183, "BSTAR": -0.0095488665, "MEAN_MOTION_DOT": -0.01898111, "MEAN_MOTION_DDOT": 0}, "tle": {"line1": "1 67043U 25294P   25356.25002315 -.01898111  00000+0 -95489-2 0  9998", "line2": "2 67043  42.9999 123.8951 0001303 271.8274 255.3319 15.83646160  1831"}}, "geometry": {"type": "Point", "coordinates": [-147.2317440805921, 42.973487562083484]}}, {"type": "Feature", "properties": {"norad_id": 67044, "name": "STARLINK-35884", "group": "last-30-days", "lat": 42.90819106010386, "lon": -144.31755150647132, "alt_km": 318.877450599035, "timestamp": "2025-12-22T14:45:56.100345+00:00", "meta": {"OBJECT_NAME": "STARLINK-35884", "OBJECT_ID": "2025-294Q", "EPOCH": "2025-12-22T06:00:02.000160", "MEAN_MOTION": 15.83644609, "ECCENTRICITY": 0.00013003, "INCLINATION": 43.0001, "RA_OF_ASC_NODE": 123.8896, "ARG_OF_PERICENTER": 274.185, "MEAN_ANOMALY": 255.1154, "EPHEMERIS_TYPE": 0, "CLASSIFICATION_TYPE": "U", "NORAD_CAT_ID": 67044, "ELEMENT_SET_NO": 999, "REV_AT_EPOCH": 183, "BSTAR": -0.0095882966, "MEAN_MOTION_DOT": -0.01904805, "MEAN_MOTION_DDOT": 0}, "tle": {"line1": "1 67044U 25294Q   25356.25002315 -.01904805  00000+0 -95883-2 0  9995", "line2": "2 67044  43.0001 123.8896 0001300 274.1850 255.1154 15.83644609  1830"}}, "geometry": {"type": "Point", "coordinates": [-144.31755150647132, 42.90819106010386]}}, {"type": "Feature", "properties": {"norad_id": 67045, "name": "STARLINK-35891", "group": "last-30-days", "lat": 42.73758328358167, "lon": -140.9205335556778, "alt_km": 318.857633653206, "timestamp": "2025-12-22T14:45:56.100356+00:00", "meta": {"OBJECT_NAME": "STARLINK-35891", "OBJECT_ID": "2025-294R", "EPOCH": "2025-12-22T06:00:02.000160", "MEAN_MOTION": 15.83628532, "ECCENTRICITY": 0.00011311, "INCLINATION": 43, "RA_OF_ASC_NODE": 123.8831, "ARG_OF_PERICENTER": 266.9692, "MEAN_ANOMALY": 264.859, "EPHEMERIS_TYPE": 0, "CLASSIFICATION_TYPE": "U", "NORAD_CAT_ID": 67045, "ELEMENT_SET_NO": 999, "REV_AT_EPOCH": 175, "BSTAR": -0.0096420088, "MEAN_MOTION_DOT": -0.01912628, "MEAN_MOTION_DDOT": 0}, "tle": {"line1": "1 67045U 25294R   25356.25002315 -.01912628  00000+0 -96420-2 0  9996", "line2": "2 67045  43.0000 123.8831 0001131 266.9692 264.8590 15.83628532  1753"}}, "geometry": {"type": "Point", "coordinates": [-140.9205335556778, 42.73758328358167]}}, {"type": "Feature", "properties": {"norad_id": 67046, "name": "STARLINK-35721", "group": "last-30-days", "lat": 42.49432209148016, "lon": -137.83512790524523, "alt_km": 318.88994468125657, "timestamp": "2025-12-22T14:45:56.100366+00:00", "meta": {"OBJECT_NAME": "STARLINK-35721", "OBJECT_ID": "2025-294S", "EPOCH": "2025-12-22T06:00:02.000160", "MEAN_MOTION": 15.8360791, "ECCENTRICITY": 0.00010811, "INCLINATION": 43.0003, "RA_OF_ASC_NODE": 123.8773, "ARG_OF_PERICENTER": 263.6093, "MEAN_ANOMALY": 270.529, "EPHEMERIS_TYPE": 0, "CLASSIFICATION_TYPE": "U", "NORAD_CAT_ID": 67046, "ELEMENT_SET_NO": 999, "REV_AT_EPOCH": 183, "BSTAR": -0.0096198043, "MEAN_MOTION_DOT": -0.01907099, "MEAN_MOTION_DDOT": 0}, "tle": {"line1": "1 67046U 25294S   25356.25002315 -.01907099  00000+0 -96198-2 0  9995", "line2": "2 67046  43.0003 123.8773 0001081 263.6093 270.5290 15.83607910  1832"}}, "geometry": {"type": "Point", "coordinates": [-137.83512790524523, 42.49432209148016]}}, {"type": "Feature", "properties": {"norad_id": 67047, "name": "STARLINK-35779", "group": "last-30-days", "lat": 42.13336825353331, "lon": -134.49232537938815, "alt_km": 318.9957265438361, "timestamp": "2025-12-22T14:45:56.100377+00:00", "meta": {"OBJECT_NAME": "STARLINK-35779", "OBJECT_ID": "2025-294T", "EPOCH": "2025-12-22T06:00:02.000160", "MEAN_MOTION": 15.83589922, "ECCENTRICITY": 0.0001047, "INCLINATION": 43, "RA_OF_ASC_NODE": 123.8712, "ARG_OF_PERICENTER": 270.3417, "MEAN_ANOMALY": 266.3194, "EPHEMERIS_TYPE": 0, "CLASSIFICATION_TYPE": "U", "NORAD_CAT_ID": 67047, "ELEMENT_SET_NO": 999, "REV_AT_EPOCH": 164, "BSTAR": -0.0096473887, "MEAN_MOTION_DOT": -0.01910382, "MEAN_MOTION_DDOT": 0}, "tle": {"line1": "1 67047U 25294T   25356.25002315 -.01910382  00000+0 -96474-2 0  9992", "line2": "2 67047  43.0000 123.8712 0001047 270.3417 266.3194 15.83589922  1647"}}, "geometry": {"type": "Point", "coordinates": [-134.49232537938815, 42.13336825353331]}}, {"type": "Feature", "properties": {"norad_id": 67048, "name": "STARLINK-35905", "group": "last-30-days", "lat": 41.77970685683709, "lon": -131.87618371222396, "alt_km": 318.9684000097868, "timestamp": "2025-12-22T14:45:56.100387+00:00", "meta": {"OBJECT_NAME": "STARLINK-35905", "OBJECT_ID": "2025-294U", "EPOCH": "2025-12-22T06:00:02.000160", "MEAN_MOTION": 15.83495278, "ECCENTRICITY": 9.416e-05, "INCLINATION": 43.0002, "RA_OF_ASC_NODE": 123.866, "ARG_OF_PERICENTER": 271.0652, "MEAN_ANOMALY": 267.6477, "EPHEMERIS_TYPE": 0, "CLASSIFICATION_TYPE": "U", "NORAD_CAT_ID": 67048, "ELEMENT_SET_NO": 999, "REV_AT_EPOCH": 175, "BSTAR": -0.0091692589, "MEAN_MOTION_DOT": -0.01820067, "MEAN_MOTION_DDOT": 0}, "tle": {"line1": "1 67048U 25294U   25356.25002315 -.01820067  00000+0 -91693-2 0  9991", "line2": "2 67048  43.0002 123.8660 0000941 271.0652 267.6477 15.83495278  1753"}}, "geometry": {"type": "Point", "coordinates": [-131.87618371222396, 41.77970685683709]}}, {"type": "Feature", "properties": {"norad_id": 67049, "name": "STARLINK-35877", "group": "last-30-days", "lat": 41.27189490005615, "lon": -128.74551624070108, "alt_km": 319.207856754505, "timestamp": "2025-12-22T14:45:56.100399+00:00", "meta": {"OBJECT_NAME": "STARLINK-35877", "OBJECT_ID": "2025-294V", "EPOCH": "2025-12-22T06:00:02.000160", "MEAN_MOTION": 15.8357899, "ECCENTRICITY": 0.00011047, "INCLINATION": 43.0004, "RA_OF_ASC_NODE": 123.8601, "ARG_OF_PERICENTER": 267.2606, "MEAN_ANOMALY": 273.8016, "EPHEMERIS_TYPE": 0, "CLASSIFICATION_TYPE": "U", "NORAD_CAT_ID": 67049, "ELEMENT_SET_NO": 999, "REV_AT_EPOCH": 183, "BSTAR": -0.0097180972, "MEAN_MOTION_DOT": -0.01921721, "MEAN_MOTION_DDOT": 0}, "tle": {"line1": "1 67049U 25294V   25356.25002315 -.01921721  00000+0 -97181-2 0  9999", "line2": "2 67049  43.0004 123.8601 0001104 267.2606 273.8016 15.83578990  1839"}}, "geometry": {"type": "Point", "coordinates": [-128.74551624070108, 41.27189490005615]}}, {"type": "Feature", "properties": {"norad_id": 67050, "name": "STARLINK-36078", "group": "last-30-days", "lat": 40.674563768945255, "lon": -125.64081875708132, "alt_km": 319.4153611053971, "timestamp": "2025-12-22T14:45:56.100409+00:00", "meta": {"OBJECT_NAME": "STARLINK-36078", "OBJECT_ID": "2025-294W", "EPOCH": "2025-12-22T06:00:02.000160", "MEAN_MOTION": 15.83557826, "ECCENTRICITY": 0.00012618, "INCLINATION": 43.0003, "RA_OF_ASC_NODE": 123.854, "ARG_OF_PERICENTER": 264.3742, "MEAN_ANOMALY": 279.1346, "EPHEMERIS_TYPE": 0, "CLASSIFICATION_TYPE": "U", "NORAD_CAT_ID": 67050, "ELEMENT_SET_NO": 999, "REV_AT_EPOCH": 175, "BSTAR": -0.0096923476, "MEAN_MOTION_DOT": -0.01915753, "MEAN_MOTION_DDOT": 0}, "tle": {"line1": "1 67050U 25294W   25356.25002315 -.01915753  00000+0 -96923-2 0  9992", "line2": "2 67050  43.0003 123.8540 0001261 264.3742 279.1346 15.83557826  1756"}}, "geometry": {"type": "Point", "coordinates": [-125.64081875708132, 40.674563768945255]}}]}